0 FENGYUN 1C DEB
1 35102U 99025DKE 13280.22094634  .00000593  00000-0  28734-3 0  2324
2 35102 098.8600 289.1875 0069093 048.2520 312.4644 14.20993537272101
0 FENGYUN 1C DEB
1 35102U 99025DKE 13283.24867510  .00000622  00000-0  30011-3 0  2335
2 35102 098.8600 292.2239 0069060 039.0185 321.6169 14.20998331272537
0 FENGYUN 1C DEB
1 35102U 99025DKE 13285.22020388  .00000661  00000-0  31785-3 0  2342
2 35102 098.8587 294.1979 0068994 032.9612 327.5868 14.21002274272810
0 FENGYUN 1C DEB
1 35102U 99025DKE 13287.26214729  .00000682  00000-0  32735-3 0  2352
2 35102 098.8588 296.2446 0068735 026.9786 333.5167 14.21005918273101
0 FENGYUN 1C DEB
1 35102U 99025DKE 13290.21942752  .00000735  00000-0  35124-3 0  2360
2 35102 098.8586 299.2109 0069001 019.6421 340.7615 14.21012004273528
0 FENGYUN 1C DEB
1 35102U 99025DKE 13292.26135150  .00000758  00000-0  36159-3 0  2378
2 35102 098.8585 301.2584 0069445 013.7525 346.5597 14.21015847273813
0 FENGYUN 1C DEB
1 35102U 99025DKE 13293.24710629  .00000800  00000-0  38051-3 0  2389
2 35102 098.8610 302.2565 0069121 012.1106 348.2137 14.21018909273957
